[{"OBJECT_NAME":"CS2","OBJECT_ID":"2021-088C","EPOCH":"2026-03-09T17:38:11.846112","MEAN_MOTION":15.3325593,"ECCENTRICITY":0.00116375,"INCLINATION":97.3928,"RA_OF_ASC_NODE":134.2907,"ARG_OF_PERICENTER":82.3491,"MEAN_ANOMALY":277.9072,"EPHEMERIS_TYPE":0,"CLASSIFICATION_TYPE":"U","NORAD_CAT_ID":49262,"ELEMENT_SET_NO":999,"REV_AT_EPOCH":24526,"BSTAR":0.0005617759,"MEAN_MOTION_DOT":0.00018033,"MEAN_MOTION_DDOT":0},{"OBJECT_NAME":"STARLINK-32003","OBJECT_ID":"2024-117G","EPOCH":"2026-03-09T04:51:19.844928","MEAN_MOTION":15.3019383,"ECCENTRICITY":0.00010733,"INCLINATION":53.1616,"RA_OF_ASC_NODE":39.2575,"ARG_OF_PERICENTER":72.3058,"MEAN_ANOMALY":287.806,"EPHEMERIS_TYPE":0,"CLASSIFICATION_TYPE":"U","NORAD_CAT_ID":60097,"ELEMENT_SET_NO":999,"REV_AT_EPOCH":9681,"BSTAR":1.6603293e-5,"MEAN_MOTION_DOT":1.33e-6,"MEAN_MOTION_DDOT":0}]
